NORAD_CAT_ID,OBJECT_NAME,OBJECT_TYPE,EPOCH,MEAN_MOTION,ECCENTRICITY,INCLINATION,RA_OF_ASC_NODE,ARG_OF_PERICENTER,MEAN_ANOMALY,BSTAR,MEAN_MOTION_DOT,MEAN_MOTION_DDOT,TLE_LINE0,TLE_LINE1,TLE_LINE2,SEMIMAJOR_AXIS,PERIOD,APOGEE,PERIGEE,DECAYED
49432.0,STARLINK-3158,PAYLOAD,2022-05-01 22:00:01,15.08818736,0.0001951,53.2186,58.8697,35.4168,61.7771,-0.0010921,-0.00017617,0.0,0 STARLINK-3158,1 49432U 21104AA  22121.91668981 -.00017617  00000-0 -10921-2 0  9995,2 49432  53.2186  58.8697 0001951  35.4168  61.7771 15.08818736 27336,6917.945,95.439,541.16,538.461,0.0
49432.0,STARLINK-3158,PAYLOAD,2022-05-02 14:00:01,15.08813499,0.0001949,53.2183,55.8773,34.334,85.92200000000004,0.0012795,0.00020119,0.0,0 STARLINK-3158,1 49432U 21104AA  22122.58334491  .00020119  00000-0  12795-2 0  9995,2 49432  53.2183  55.8773 0001949  34.3340  85.9220 15.08813499 27431,6917.9609999999975,95.439,541.175,538.4780000000002,0.0
49432.0,STARLINK-3158,PAYLOAD,2022-05-02 22:00:01,15.08848157,0.0001989,53.2186,54.3812,36.8801,95.0068,-0.00065827,-0.00010752,0.0,0 STARLINK-3158,1 49432U 21104AA  22122.91668981 -.00010752  00000-0 -65827-3 0  9995,2 49432  53.2186  54.3812 0001989  36.8801  95.0068 15.08848157  3609,6917.855,95.437,541.096,538.344,0.0
49432.0,STARLINK-3158,PAYLOAD,2022-05-03 14:00:01,15.08855814,0.0001934,53.2186,51.3885,35.1307,119.8971,-0.0011285,-0.00018211,0.0,0 STARLINK-3158,1 49432U 21104AA  22123.58334491 -.00018211  00000-0 -11285-2 0  9991,2 49432  53.2186  51.3885 0001934  35.1307 119.8971 15.08855814  3560,6917.831999999999,95.437,541.035,538.359,0.0
49432.0,STARLINK-3158,PAYLOAD,2022-05-03 22:00:00,15.08852915,0.000194,53.2187,49.8928,36.0218,130.6103,-0.00075894,-0.00012351,0.0,0 STARLINK-3158,1 49432U 21104AA  22123.91667824 -.00012351  00000-0 -75894-3 0  9993,2 49432  53.2187  49.8928 0001940  36.0218 130.6103 15.08852915 27630,6917.840999999999,95.437,541.048,538.364,0.0
49432.0,STARLINK-3158,PAYLOAD,2022-05-04 14:00:01,15.08824635,0.0001931,53.2182,46.8996,37.8448,152.0122,0.0018806,0.00029756,0.0,0 STARLINK-3158,1 49432U 21104AA  22124.58334491  .00029756  00000-0  18806-2 0  9992,2 49432  53.2182  46.8996 0001931  37.8448 152.0122 15.08824635  3609,6917.927,95.439,541.128,538.457,0.0
49432.0,STARLINK-3158,PAYLOAD,2022-05-04 20:00:01,15.08857629,0.0001941,53.2184,45.7775,41.2348,67.3689,-0.00047164,-7.79e-05,0.0,0 STARLINK-3158,1 49432U 21104AA  22124.83335648 -.00007790  00000-0 -47164-3 0  9991,2 49432  53.2184  45.7775 0001941  41.2348  67.3689 15.08857629 27772,6917.8269999999975,95.436,541.034,538.349,0.0
49432.0,STARLINK-3158,PAYLOAD,2022-05-04 22:00:01,15.08873359,0.0001969,53.2184,45.4041,39.9811,161.52200000000005,-0.0031158,-0.00049581,0.0,0 STARLINK-3158,1 49432U 21104AA  22124.91668981 -.00049581  00000-0 -31158-2 0  9998,2 49432  53.2184  45.4041 0001969  39.9811 161.5220 15.08873359  3606,6917.778,95.435,541.006,538.281,0.0
49432.0,STARLINK-3158,PAYLOAD,2022-05-05 14:00:01,15.088331900000002,0.000186,53.2178,42.4107,37.399,187.2515,-0.0001368,-2.464e-05,0.0,0 STARLINK-3158,1 49432U 21104AA  22125.58334491 -.00002464  00000-0 -13680-3 0  9998,2 49432  53.2178  42.4107 0001860  37.3990 187.2515 15.08833190  3565,6917.901,95.438,541.053,538.479,0.0
49432.0,STARLINK-3158,PAYLOAD,2022-05-05 22:00:00,15.08837566,0.0001914,53.2177,40.9154,37.7609,198.4739,-0.00097747,-0.0001581,0.0,0 STARLINK-3158,1 49432U 21104AA  22125.91667824 -.00015810  00000-0 -97747-3 0  9999,2 49432  53.2177  40.9154 0001914  37.7609 198.4739 15.08837566 27930,6917.888000000001,95.438,541.077,538.429,0.0
49432.0,STARLINK-3158,PAYLOAD,2022-05-06 14:00:01,15.08836797,0.0001913,53.2174,37.903,37.5327,221.8463,6.197699999999999e-05,6.98e-06,0.0,0 STARLINK-3158,1 49432U 21104AA  22126.58334491  .00000698  00000-0  61977-4 0  9997,2 49432  53.2174  37.9030 0001913  37.5327 221.8463 15.08836797  3619,6917.89,95.438,541.0790000000002,538.432,0.0
49432.0,STARLINK-3158,PAYLOAD,2022-05-06 22:00:00,15.08877526,0.0001933,53.2173,36.4264,38.1401,232.8657,-0.0039714,-0.00063006,0.0,0 STARLINK-3158,1 49432U 21104AA  22126.91667824 -.00063006  00000-0 -39714-2 0  9999,2 49432  53.2173  36.4264 0001933  38.1401 232.8657 15.08877526 28083,6917.766,95.435,540.9680000000002,538.293,0.0
49432.0,STARLINK-3158,PAYLOAD,2022-05-07 14:00:01,15.0882993,0.00019,53.2171,33.4325,38.7185,255.4952,0.0013009,0.00020471,0.0,0 STARLINK-3158,1 49432U 21104AA  22127.58334491  .00020471  00000-0  13009-2 0  9990,2 49432  53.2171  33.4325 0001900  38.7185 255.4952 15.08829930 28181,6917.911,95.438,541.091,538.462,0.0
49432.0,STARLINK-3158,PAYLOAD,2022-05-07 22:00:00,15.08835233,0.0002094,53.2173,31.9372,40.3462,265.456,-0.0012856,-0.00020688,0.0,0 STARLINK-3158,1 49432U 21104AA  22127.91667824 -.00020688  00000-0 -12856-2 0  9997,2 49432  53.2173  31.9372 0002094  40.3462 265.4560 15.08835233  3597,6917.895,95.438,541.2090000000002,538.311,0.0
49432.0,STARLINK-3158,PAYLOAD,2022-05-08 06:00:00,15.0883375,0.0002185,53.2171,30.4415,36.7621,280.6172,-0.00017288,-3.038e-05,0.0,0 STARLINK-3158,1 49432U 21104AA  22128.25001157 -.00003038  00000-0 -17288-3 0  9991,2 49432  53.2171  30.4415 0002185  36.7621 280.6172 15.08833750 28287,6917.899,95.438,541.276,538.253,0.0
49432.0,STARLINK-3158,PAYLOAD,2022-05-08 14:00:01,15.08793645,0.0001992,53.2174,28.9433,40.7042,288.2733,0.0027461,0.00043632,0.0,0 STARLINK-3158,1 49432U 21104AA  22128.58334491  .00043632  00000-0  27461-2 0  9992,2 49432  53.2174  28.9433 0001992  40.7042 288.2733 15.08793645  3603,6918.022,95.44,541.265,538.509,0.0
49432.0,STARLINK-3158,PAYLOAD,2022-05-08 22:00:00,15.08833082,0.0002152,53.2176,27.4481,39.7357,300.7972,-0.00097352,-0.00015746,0.0,0 STARLINK-3158,1 49432U 21104AA  22128.91667824 -.00015746  00000-0 -97352-3 0  9992,2 49432  53.2176  27.4481 0002152  39.7357 300.7972 15.08833082  3568,6917.901999999999,95.438,541.255,538.278,0.0
49432.0,STARLINK-3158,PAYLOAD,2022-05-09 14:00:01,15.088172699999998,0.000206,53.218,24.4542,41.9671,321.8062,0.003861,0.0006166,0.0,0 STARLINK-3158,1 49432U 21104AA  22129.58335648  .00061660  00000-0  38610-2 0  9997,2 49432  53.2180  24.4542 0002060  41.9671 321.8062 15.08817270 28483,6917.95,95.439,541.24,538.39,0.0
49432.0,STARLINK-3158,PAYLOAD,2022-05-09 22:00:00,15.08876307,0.0002204,53.2182,22.9592,40.0987,335.2014,-0.0035513,-0.00056423,0.0,0 STARLINK-3158,1 49432U 21104AA  22129.91667824 -.00056423  00000-0 -35513-2 0  9990,2 49432  53.2182  22.9592 0002204  40.0987 335.2014 15.08876307  3578,6917.769,95.435,541.159,538.11,0.0
49432.0,STARLINK-3158,PAYLOAD,2022-05-10 08:00:01,15.08853806,0.0002186,53.2182,21.0884,38.4755,81.3344,-0.001242,-0.00020008,0.0,0 STARLINK-3158,1 49432U 21104AA  22130.33334491 -.00020008  00000-0 -12420-2 0  9991,2 49432  53.2182  21.0884 0002186  38.4755  81.3344 15.08853806 28600,6917.8380000000025,95.437,541.215,538.191,0.0
49432.0,STARLINK-3158,PAYLOAD,2022-05-10 14:00:01,15.08834434,0.0002054,53.2177,19.9651,42.494,356.0239,0.0012511,0.00019676,0.0,0 STARLINK-3158,1 49432U 21104AA  22130.58334491  .00019676  00000-0  12511-2 0  9996,2 49432  53.2177  19.9651 0002054  42.4940 356.0239 15.08834434  3601,6917.897,95.438,541.183,538.341,0.0
49432.0,STARLINK-3158,PAYLOAD,2022-05-10 20:11:23,15.08841752,0.0002173,53.2186,18.8077,43.1799,316.9363,0.00021098,3.071e-05,0.0,0 STARLINK-3158,1 49432U 21104AA  22130.84124093  .00003071  00000-0  21098-3 0  9993,2 49432  53.2186  18.8077 0002173  43.1799 316.9363 15.08841752 27591,6917.875,95.437,541.243,538.237,0.0
49432.0,STARLINK-3158,PAYLOAD,2022-05-11 22:00:00,15.08836361,0.0002207,53.2167,13.9815,42.5522,42.3419,-0.00085285,-0.00013835,0.0,0 STARLINK-3158,1 49432U 21104AA  22131.91667824 -.00013835  00000-0 -85285-3 0  9995,2 49432  53.2167  13.9815 0002207  42.5522  42.3419 15.08836361 28842,6917.892,95.438,541.283,538.23,0.0
49432.0,STARLINK-3158,PAYLOAD,2022-05-12 14:00:01,15.0884239,0.0002002,53.2164,10.9872,45.826,62.2565,0.00052591,8.092e-05,0.0,0 STARLINK-3158,1 49432U 21104AA  22132.58334491  .00008092  00000-0  52591-3 0  9991,2 49432  53.2164  10.9872 0002002  45.8260  62.2565 15.08842390  1301,6917.873000000001,95.437,541.123,538.3530000000002,0.0
49432.0,STARLINK-3158,PAYLOAD,2022-05-12 20:00:01,15.08853032,0.0002067,53.2165,9.8663,43.5442,343.2428,-0.0015209,-0.00024421,0.0,0 STARLINK-3158,1 49432U 21104AA  22132.83334491 -.00024421  00000-0 -15209-2 0  9999,2 49432  53.2165   9.8663 0002067  43.5442 343.2428 15.08853032 28983,6917.840999999999,95.437,541.135,538.276,0.0
49432.0,STARLINK-3158,PAYLOAD,2022-05-12 22:00:00,15.08841459,0.0002121,53.2163,9.4926,42.2107,77.48,-0.00029598,-4.996e-05,0.0,0 STARLINK-3158,1 49432U 21104AA  22132.91667824 -.00004996  00000-0 -29598-3 0  9999,2 49432  53.2163   9.4926 0002121  42.2107  77.4800 15.08841459  1301,6917.876,95.437,541.2080000000002,538.274,0.0
49432.0,STARLINK-3158,PAYLOAD,2022-05-13 14:00:01,15.08810735,0.000188,53.2158,6.4982,44.1405,98.7523,0.0027054,0.00042997,0.0,0 STARLINK-3158,1 49432U 21104AA  22133.58334491  .00042997  00000-0  27054-2 0  9999,2 49432  53.2158   6.4982 0001880  44.1405  98.7523 15.08810735 29094,6917.97,95.439,541.135,538.534,0.0
49432.0,STARLINK-3158,PAYLOAD,2022-05-13 22:00:00,15.08845686,0.0002025,53.2159,5.0036,39.7849,114.6873,-0.003144,-0.00049987,0.0,0 STARLINK-3158,1 49432U 21104AA  22133.91667824 -.00049987  00000-0 -31440-2 0  9997,2 49432  53.2159   5.0036 0002025  39.7849 114.6873 15.08845686  1307,6917.863,95.437,541.129,538.327,0.0
49432.0,STARLINK-3158,PAYLOAD,2022-05-14 06:00:00,15.08830019,0.0001997,53.2153,3.5068,37.4191,128.6259,-0.0009275,-0.00015015,0.0,0 STARLINK-3158,1 49432U 21104AA  22134.25001157 -.00015015  00000-0 -92750-3 0  9993,2 49432  53.2153   3.5068 0001997  37.4191 128.6259 15.08830019 29195,6917.911,95.438,541.1569999999998,538.394,0.0
